GLOBALSTAR M084         
1 38040U 11080A   24309.92563757 -.00000063  00000+0  22824-3 0  9997
2 38040  52.0036  11.2077 0000141 136.2364  34.6708 12.62269789594347
GLOBALSTAR M080         
1 38041U 11080B   24309.89933929 -.00000067  00000+0  20730-3 0  9994
2 38041  52.0089  12.8164 0000361 182.2041 348.6612 12.62267785594466
GLOBALSTAR M082         
1 38042U 11080C   24309.59149885 -.00000068  00000+0  20007-3 0  9990
2 38042  52.0091 329.1772 0000837  68.4431  83.1066 12.62269012595139
GLOBALSTAR M092         
1 38043U 11080D   24309.61400221 -.00000080  00000+0  13386-3 0  9994
2 38043  52.0097  59.4689 0000596 102.6475 271.3529 12.62268897593590
GLOBALSTAR M086         
1 38045U 11080F   24309.80668868 -.00000072  00000+0  17659-3 0  9998
2 38045  51.9909 323.1515 0000898 161.1975   9.6330 12.62269474595227
